STARLINK-1559           
1 46077U 20055BC  26068.23360559  .00042685  00000+0  14779-2 0  9995
2 46077  53.0254  76.0659 0004229  33.9710 326.1559 15.29461733309518
STARLINK-34054          
1 64141U 25111U   26068.42419102  .00020027  00000+0  73505-3 0  9994
2 64141  43.0041  79.2911 0001442 268.6319  91.4367 15.27592397 45420
